{"type": "FeatureCollection", "features": [{"type": "Feature", "properties": {"norad_id": 22490, "name": "SCD 1", "group": "resource", "lat": 23.250196579281777, "lon": -51.575489475060074, "alt_km": 703.362337108696, "timestamp": "2025-12-26T03:50:11.744037+00:00", "meta": {"OBJECT_NAME": "SCD 1", "OBJECT_ID": "1993-009B", "EPOCH": "2025-12-25T16:00:22.325184", "MEAN_MOTION": 14.46007346, "ECCENTRICITY": 0.0042177, "INCLINATION": 24.9675, "RA_OF_ASC_NODE": 198.8837, "ARG_OF_PERICENTER": 101.5468, "MEAN_ANOMALY": 317.8225, "EPHEMERIS_TYPE": 0, "CLASSIFICATION_TYPE": "U", "NORAD_CAT_ID": 22490, "ELEMENT_SET_NO": 999, "REV_AT_EPOCH": 73597, "BSTAR": 8.5981e-05, "MEAN_MOTION_DOT": 5e-06, "MEAN_MOTION_DDOT": 0}, "tle": {"line1": "1 22490U 93009B   25359.66692506  .00000500  00000+0  85981-4 0  9991", "line2": "2 22490  24.9675 198.8837 0042177 101.5468 317.8225 14.46007346735976"}}, "geometry": {"type": "Point", "coordinates": [-51.575489475060074, 23.250196579281777]}}, {"type": "Feature", "properties": {"norad_id": 25397, "name": "TECHSAT 1B (GO-32)", "group": "resource", "lat": -5.748601584232542, "lon": 162.768936342087, "alt_km": 815.2330073242965, "timestamp": "2025-12-26T03:50:11.744079+00:00", "meta": {"OBJECT_NAME": "TECHSAT 1B (GO-32)", "OBJECT_ID": "1998-043D", "EPOCH": "2025-12-25T20:13:26.539392", "MEAN_MOTION": 14.24380564, "ECCENTRICITY": 0.0001634, "INCLINATION": 98.9934, "RA_OF_ASC_NODE": 343.3579, "ARG_OF_PERICENTER": 35.6361, "MEAN_ANOMALY": 324.4926, "EPHEMERIS_TYPE": 0, "CLASSIFICATION_TYPE": "U", "NORAD_CAT_ID": 25397, "ELEMENT_SET_NO": 999, "REV_AT_EPOCH": 42665, "BSTAR": 5.8223e-05, "MEAN_MOTION_DOT": 8.8e-07, "MEAN_MOTION_DDOT": 0}, "tle": {"line1": "1 25397U 98043D   25359.84266828  .00000088  00000+0  58223-4 0  9997", "line2": "2 25397  98.9934 343.3579 0001634  35.6361 324.4926 14.24380564426652"}}, "geometry": {"type": "Point", "coordinates": [162.768936342087, -5.748601584232542]}}, {"type": "Feature", "properties": {"norad_id": 25504, "name": "SCD 2", "group": "resource", "lat": 22.56375764073212, "lon": 176.04305404340948, "alt_km": 723.885396108516, "timestamp": "2025-12-26T03:50:11.744097+00:00", "meta": {"OBJECT_NAME": "SCD 2", "OBJECT_ID": "1998-060A", "EPOCH": "2025-12-25T12:59:50.528256", "MEAN_MOTION": 14.45430101, "ECCENTRICITY": 0.0017068, "INCLINATION": 24.9956, "RA_OF_ASC_NODE": 62.9589, "ARG_OF_PERICENTER": 88.2247, "MEAN_ANOMALY": 42.4879, "EPHEMERIS_TYPE": 0, "CLASSIFICATION_TYPE": "U", "NORAD_CAT_ID": 25504, "ELEMENT_SET_NO": 999, "REV_AT_EPOCH": 43517, "BSTAR": 7.5618e-05, "MEAN_MOTION_DOT": 4.53e-06, "MEAN_MOTION_DDOT": 0}, "tle": {"line1": "1 25504U 98060A   25359.54155704  .00000453  00000+0  75618-4 0  9996", "line2": "2 25504  24.9956  62.9589 0017068  88.2247  42.4879 14.45430101435172"}}, "geometry": {"type": "Point", "coordinates": [176.04305404340948, 22.56375764073212]}}, {"type": "Feature", "properties": {"norad_id": 25757, "name": "DLR-TUBSAT", "group": "resource", "lat": -45.71363115492656, "lon": -5.926549786829105, "alt_km": 734.2535884305344, "timestamp": "2025-12-26T03:50:11.744111+00:00", "meta": {"OBJECT_NAME": "DLR-TUBSAT", "OBJECT_ID": "1999-029B", "EPOCH": "2025-12-17T13:22:10.787520", "MEAN_MOTION": 14.52359578, "ECCENTRICITY": 0.00141996, "INCLINATION": 98.6566, "RA_OF_ASC_NODE": 336.2196, "ARG_OF_PERICENTER": 177.8976, "MEAN_ANOMALY": 182.2281, "EPHEMERIS_TYPE": 0, "CLASSIFICATION_TYPE": "U", "NORAD_CAT_ID": 25757, "ELEMENT_SET_NO": 999, "REV_AT_EPOCH": 40688, "BSTAR": 3.7650132e-05, "MEAN_MOTION_DOT": 1.05e-06, "MEAN_MOTION_DDOT": 0}, "tle": {"line1": "1 25757U 99029B   25351.55706930  .00000105  00000+0  37650-4 0  9996", "line2": "2 25757  98.6566 336.2196 0014199 177.8976 182.2281 14.52359578406886"}}, "geometry": {"type": "Point", "coordinates": [-5.926549786829105, -45.71363115492656]}}, {"type": "Feature", "properties": {"norad_id": 25994, "name": "TERRA", "group": "resource", "lat": 67.11957141116575, "lon": 31.953722345757825, "alt_km": 681.2683845536421, "timestamp": "2025-12-26T03:50:11.744123+00:00", "meta": {"OBJECT_NAME": "TERRA", "OBJECT_ID": "1999-068A", "EPOCH": "2025-12-25T19:36:13.166784", "MEAN_MOTION": 14.60916091, "ECCENTRICITY": 0.0003407, "INCLINATION": 97.9731, "RA_OF_ASC_NODE": 51.0202, "ARG_OF_PERICENTER": 68.4224, "MEAN_ANOMALY": 357.0346, "EPHEMERIS_TYPE": 0, "CLASSIFICATION_TYPE": "U", "NORAD_CAT_ID": 25994, "ELEMENT_SET_NO": 999, "REV_AT_EPOCH": 38429, "BSTAR": 0.00010741, "MEAN_MOTION_DOT": 4.81e-06, "MEAN_MOTION_DDOT": 0}, "tle": {"line1": "1 25994U 99068A   25359.81681906  .00000481  00000+0  10741-3 0  9992", "line2": "2 25994  97.9731  51.0202 0003407  68.4224 357.0346 14.60916091384298"}}, "geometry": {"type": "Point", "coordinates": [31.953722345757825, 67.11957141116575]}}, {"type": "Feature", "properties": {"norad_id": 27004, "name": "MAROC-TUBSAT", "group": "resource", "lat": 5.209848430699114, "lon": 167.93747683288407, "alt_km": 1011.779821983364, "timestamp": "2025-12-26T03:50:11.744136+00:00", "meta": {"OBJECT_NAME": "MAROC-TUBSAT", "OBJECT_ID": "2001-056D", "EPOCH": "2025-12-25T10:32:57.324768", "MEAN_MOTION": 13.70253508, "ECCENTRICITY": 0.0019286, "INCLINATION": 99.7917, "RA_OF_ASC_NODE": 168.1071, "ARG_OF_PERICENTER": 226.4654, "MEAN_ANOMALY": 187.434, "EPHEMERIS_TYPE": 0, "CLASSIFICATION_TYPE": "U", "NORAD_CAT_ID": 27004, "ELEMENT_SET_NO": 999, "REV_AT_EPOCH": 20239, "BSTAR": 2.8305e-05, "MEAN_MOTION_DOT": -2.2e-07, "MEAN_MOTION_DDOT": 0}, "tle": {"line1": "1 27004U 01056D   25359.43955237 -.00000022  00000+0  28305-4 0  9993", "line2": "2 27004  99.7917 168.1071 0019286 226.4654 187.4340 13.70253508202393"}}, "geometry": {"type": "Point", "coordinates": [167.93747683288407, 5.209848430699114]}}, {"type": "Feature", "properties": {"norad_id": 27424, "name": "AQUA", "group": "resource", "lat": -12.467655057980469, "lon": -36.86809202342246, "alt_km": 692.3932933757242, "timestamp": "2025-12-26T03:50:11.744148+00:00", "meta": {"OBJECT_NAME": "AQUA", "OBJECT_ID": "2002-022A", "EPOCH": "2025-12-24T19:18:33.414624", "MEAN_MOTION": 14.61757572, "ECCENTRICITY": 0.00018094, "INCLINATION": 98.4055, "RA_OF_ASC_NODE": 319.881, "ARG_OF_PERICENTER": 102.1365, "MEAN_ANOMALY": 317.5475, "EPHEMERIS_TYPE": 0, "CLASSIFICATION_TYPE": "U", "NORAD_CAT_ID": 27424, "ELEMENT_SET_NO": 999, "REV_AT_EPOCH": 25779, "BSTAR": 0.00019560508, "MEAN_MOTION_DOT": 9.26e-06, "MEAN_MOTION_DDOT": 0}, "tle": {"line1": "1 27424U 02022A   25358.80455341  .00000926  00000+0  19561-3 0  9999", "line2": "2 27424  98.4055 319.8810 0001809 102.1365 317.5475 14.61757572257795"}}, "geometry": {"type": "Point", "coordinates": [-36.86809202342246, -12.467655057980469]}}, {"type": "Feature", "properties": {"norad_id": 28051, "name": "IRS-P6 (RESOURCESAT-1)", "group": "resource", "lat": 48.776528736739344, "lon": 30.452104777185433, "alt_km": 767.6408424684951, "timestamp": "2025-12-26T03:50:11.744159+00:00", "meta": {"OBJECT_NAME": "IRS-P6 (RESOURCESAT-1)", "OBJECT_ID": "2003-046A", "EPOCH": "2025-12-25T19:45:26.870688", "MEAN_MOTION": 14.36080018, "ECCENTRICITY": 0.0064932, "INCLINATION": 98.2158, "RA_OF_ASC_NODE": 39.6225, "ARG_OF_PERICENTER": 141.6231, "MEAN_ANOMALY": 329.3198, "EPHEMERIS_TYPE": 0, "CLASSIFICATION_TYPE": "U", "NORAD_CAT_ID": 28051, "ELEMENT_SET_NO": 999, "REV_AT_EPOCH": 15564, "BSTAR": 5.2712e-05, "MEAN_MOTION_DOT": 1.17e-06, "MEAN_MOTION_DDOT": 0}, "tle": {"line1": "1 28051U 03046A   25359.82322767  .00000117  00000+0  52712-4 0  9999", "line2": "2 28051  98.2158  39.6225 0064932 141.6231 329.3198 14.36080018155647"}}, "geometry": {"type": "Point", "coordinates": [30.452104777185433, 48.776528736739344]}}, {"type": "Feature", "properties": {"norad_id": 28220, "name": "SHIYAN-1 (SY-1)", "group": "resource", "lat": 52.578693125205774, "lon": 52.04722149045233, "alt_km": 478.32561891822934, "timestamp": "2025-12-26T03:50:11.744170+00:00", "meta": {"OBJECT_NAME": "SHIYAN-1 (SY-1)", "OBJECT_ID": "2004-012A", "EPOCH": "2025-12-25T18:10:37.216416", "MEAN_MOTION": 15.2847773, "ECCENTRICITY": 0.0005145, "INCLINATION": 97.8913, "RA_OF_ASC_NODE": 62.0651, "ARG_OF_PERICENTER": 270.3506, "MEAN_ANOMALY": 89.7142, "EPHEMERIS_TYPE": 0, "CLASSIFICATION_TYPE": "U", "NORAD_CAT_ID": 28220, "ELEMENT_SET_NO": 999, "REV_AT_EPOCH": 18455, "BSTAR": 0.00048278, "MEAN_MOTION_DOT": 0.00013314, "MEAN_MOTION_DDOT": 0}, "tle": {"line1": "1 28220U 04012A   25359.75737519  .00013314  00000+0  48278-3 0  9992", "line2": "2 28220  97.8913  62.0651 0005145 270.3506  89.7142 15.28477730184559"}}, "geometry": {"type": "Point", "coordinates": [52.04722149045233, 52.578693125205774]}}, {"type": "Feature", "properties": {"norad_id": 28376, "name": "AURA", "group": "resource", "lat": 75.25869316283811, "lon": -83.34262189751992, "alt_km": 681.866601099925, "timestamp": "2025-12-26T03:50:11.744181+00:00", "meta": {"OBJECT_NAME": "AURA", "OBJECT_ID": "2004-026A", "EPOCH": "2025-12-25T20:54:25.466112", "MEAN_MOTION": 14.60976018, "ECCENTRICITY": 0.0001436, "INCLINATION": 98.3203, "RA_OF_ASC_NODE": 310.1601, "ARG_OF_PERICENTER": 90.5235, "MEAN_ANOMALY": 269.613, "EPHEMERIS_TYPE": 0, "CLASSIFICATION_TYPE": "U", "NORAD_CAT_ID": 28376, "ELEMENT_SET_NO": 999, "REV_AT_EPOCH": 14090, "BSTAR": 0.00023895, "MEAN_MOTION_DOT": 1.123e-05, "MEAN_MOTION_DDOT": 0}, "tle": {"line1": "1 28376U 04026A   25359.87112808  .00001123  00000+0  23895-3 0  9993", "line2": "2 28376  98.3203 310.1601 0001436  90.5235 269.6130 14.60976018140906"}}, "geometry": {"type": "Point", "coordinates": [-83.34262189751992, 75.25869316283811]}}]}